start=new Date('2022-03-15T00:00:00.000Z').valueOf();
sats=[{"PERIAPSIS":"545.938","MEAN_ELEMENT_THEORY":"SGP4","ELEMENT_SET_NO":"999","TLE_LINE2":"2 47992  53.0539 311.8448 0001639  60.3303 235.9430 15.06445772  3584","OBJECT_TYPE":"PAYLOAD","OBJECT_NAME":"STARLINK-2229","GP_ID":"198769336","REF_FRAME":"TEME","ECCENTRICITY":"0.00016390","COUNTRY_CODE":"US","NORAD_CAT_ID":"47992","APOAPSIS":"548.208","CENTER_NAME":"EARTH","MEAN_ANOMALY":"235.9430","FILE":"3359665","BSTAR":"-0.00124420000000","EPHEMERIS_TYPE":"0","REV_AT_EPOCH":"358","EPOCH":"2022-03-14T22:00:00.999936","PERIOD":"95.589","TIME_SYSTEM":"UTC","RA_OF_ASC_NODE":"311.8448","SITE":"AFETR","MEAN_MOTION_DDOT":"0.0000000000000","OBJECT_ID":"2021-024R","MEAN_MOTION_DOT":"-0.00018789","RCS_SIZE":"LARGE","MEAN_MOTION":"15.06445772","ARG_OF_PERICENTER":"60.3303","TLE_LINE1":"1 47992U 21024R   22073.91667824 -.00018789  00000-0 -12442-2 0  9997","DECAY_DATE":null,"SEMIMAJOR_AXIS":"6925.208","INCLINATION":"53.0539","LAUNCH_DATE":"2021-03-24","CLASSIFICATION_TYPE":"U"},{"EPHEMERIS_TYPE":"0","MEAN_ANOMALY":"303.9605","CENTER_NAME":"EARTH","FILE":"3359259","BSTAR":"-0.00017907000000","NORAD_CAT_ID":"47993","APOAPSIS":"548.428","REF_FRAME":"TEME","ECCENTRICITY":"0.00016780","COUNTRY_CODE":"US","OBJECT_NAME":"STARLINK-2273","GP_ID":"198734118","TLE_LINE2":"2 47993  53.0559 353.8134 0001678  56.1544 303.9605 15.06382870 55630","OBJECT_TYPE":"PAYLOAD","PERIAPSIS":"546.104","MEAN_ELEMENT_THEORY":"SGP4","ELEMENT_SET_NO":"999","INCLINATION":"53.0559","LAUNCH_DATE":"2021-03-24","CLASSIFICATION_TYPE":"U","ARG_OF_PERICENTER":"56.1544","DECAY_DATE":null,"TLE_LINE1":"1 47993U 21024S   22073.47971954 -.00002947  00000-0 -17907-3 0  9992","SEMIMAJOR_AXIS":"6925.401","MEAN_MOTION":"15.06382870","MEAN_MOTION_DOT":"-0.00002947","RCS_SIZE":"LARGE","TIME_SYSTEM":"UTC","RA_OF_ASC_NODE":"353.8134","MEAN_MOTION_DDOT":"0.0000000000000","SITE":"AFETR","OBJECT_ID":"2021-024S","PERIOD":"95.593","REV_AT_EPOCH":"5563","EPOCH":"2022-03-14T11:30:47.768256"},{"OBJECT_TYPE":"PAYLOAD","TLE_LINE2":"2 47994  53.0570   8.4830 0001838  62.1478 297.9697 15.06401928 54910","GP_ID":"198740689","OBJECT_NAME":"STARLINK-2290","ELEMENT_SET_NO":"999","PERIAPSIS":"545.935","MEAN_ELEMENT_THEORY":"SGP4","BSTAR":"0.00008011800000","FILE":"3359401","CENTER_NAME":"EARTH","MEAN_ANOMALY":"297.9697","EPHEMERIS_TYPE":"0","COUNTRY_CODE":"US","ECCENTRICITY":"0.00018380","REF_FRAME":"TEME","APOAPSIS":"548.481","NORAD_CAT_ID":"47994","PERIOD":"95.592","SITE":"AFETR","MEAN_MOTION_DDOT":"0.0000000000000","OBJECT_ID":"2021-024T","RA_OF_ASC_NODE":"8.4830","TIME_SYSTEM":"UTC","EPOCH":"2022-03-14T13:12:16.580160","REV_AT_EPOCH":"5491","SEMIMAJOR_AXIS":"6925.343","TLE_LINE1":"1 47994U 21024T   22073.55019190  .00000912  00000-0  80118-4 0  9990","DECAY_DATE":null,"ARG_OF_PERICENTER":"62.1478","LAUNCH_DATE":"2021-03-24","CLASSIFICATION_TYPE":"U","INCLINATION":"53.0570","RCS_SIZE":"LARGE","MEAN_MOTION_DOT":"0.00000912","MEAN_MOTION":"15.06401928"},{"DECAY_DATE":null,"TLE_LINE1":"1 47995U 21024U   22073.86026624  .00013962  00000-0  95424-3 0  9999","ARG_OF_PERICENTER":"54.5212","SEMIMAJOR_AXIS":"6925.338","LAUNCH_DATE":"2021-03-24","CLASSIFICATION_TYPE":"U","INCLINATION":"53.0559","MEAN_MOTION_DOT":"0.00013962","RCS_SIZE":"LARGE","MEAN_MOTION":"15.06403395","PERIOD":"95.592","RA_OF_ASC_NODE":"332.1016","TIME_SYSTEM":"UTC","SITE":"AFETR","MEAN_MOTION_DDOT":"0.0000000000000","OBJECT_ID":"2021-024U","REV_AT_EPOCH":"5592","EPOCH":"2022-03-14T20:38:47.003136","CENTER_NAME":"EARTH","MEAN_ANOMALY":"305.5914","BSTAR":"0.00095424000000","FILE":"3359665","EPHEMERIS_TYPE":"0","REF_FRAME":"TEME","COUNTRY_CODE":"US","ECCENTRICITY":"0.00014620","APOAPSIS":"548.216","NORAD_CAT_ID":"47995","TLE_LINE2":"2 47995  53.0559 332.1016 0001462  54.5212 305.5914 15.06403395 55925","OBJECT_TYPE":"PAYLOAD","OBJECT_NAME":"STARLINK-2309","GP_ID":"198768586","PERIAPSIS":"546.191","MEAN_ELEMENT_THEORY":"SGP4","ELEMENT_SET_NO":"999"},{"CENTER_NAME":"EARTH","MEAN_ANOMALY":"281.1704","BSTAR":"-0.00037882000000","FILE":"3359665","EPHEMERIS_TYPE":"0","REF_FRAME":"TEME","COUNTRY_CODE":"US","ECCENTRICITY":"0.00031080","APOAPSIS":"458.581","NORAD_CAT_ID":"47996","TLE_LINE2":"2 47996  53.0425 272.3240 0003108 159.5809 281.1704 15.36504723  3636","OBJECT_TYPE":"PAYLOAD","OBJECT_NAME":"STARLINK-2260","GP_ID":"198768837","PERIAPSIS":"454.333","MEAN_ELEMENT_THEORY":"SGP4","ELEMENT_SET_NO":"999","TLE_LINE1":"1 47996U 21024V   22073.91667824 -.00014056  00000-0 -37882-3 0  9990","DECAY_DATE":null,"ARG_OF_PERICENTER":"159.5809","SEMIMAJOR_AXIS":"6834.592","CLASSIFICATION_TYPE":"U","LAUNCH_DATE":"2021-03-24","INCLINATION":"53.0425","MEAN_MOTION_DOT":"-0.00014056","RCS_SIZE":"LARGE","MEAN_MOTION":"15.36504723","PERIOD":"93.719","RA_OF_ASC_NODE":"272.3240","TIME_SYSTEM":"UTC","SITE":"AFETR","MEAN_MOTION_DDOT":"0.0000000000000","OBJECT_ID":"2021-024V","REV_AT_EPOCH":"363","EPOCH":"2022-03-14T22:00:00.999936"},{"OBJECT_TYPE":"PAYLOAD","TLE_LINE2":"2 47997  53.0563   8.5767 0001577  59.8128 300.3017 15.06400361 54915","GP_ID":"198740843","OBJECT_NAME":"STARLINK-2266","ELEMENT_SET_NO":"999","MEAN_ELEMENT_THEORY":"SGP4","PERIAPSIS":"546.120","BSTAR":"0.00009059400000","FILE":"3359416","MEAN_ANOMALY":"300.3017","CENTER_NAME":"EARTH","EPHEMERIS_TYPE":"0","COUNTRY_CODE":"US","ECCENTRICITY":"0.00015770","REF_FRAME":"TEME","APOAPSIS":"548.305","NORAD_CAT_ID":"47997","PERIOD":"95.592","OBJECT_ID":"2021-024W","SITE":"AFETR","MEAN_MOTION_DDOT":"0.0000000000000","RA_OF_ASC_NODE":"8.5767","TIME_SYSTEM":"UTC","EPOCH":"2022-03-14T12:45:44.935776","REV_AT_EPOCH":"5491","SEMIMAJOR_AXIS":"6925.347","TLE_LINE1":"1 47997U 21024W   22073.53177009  .00001068  00000-0  90594-4 0  9997","DECAY_DATE":null,"ARG_OF_PERICENTER":"59.8128","LAUNCH_DATE":"2021-03-24","CLASSIFICATION_TYPE":"U","INCLINATION":"53.0563","RCS_SIZE":"LARGE","MEAN_MOTION_DOT":"0.00001068","MEAN_MOTION":"15.06400361"},{"OBJECT_NAME":"STARLINK-2296","GP_ID":"198734368","TLE_LINE2":"2 47998  53.0570 343.9280 0001731  62.6563 297.4602 15.06426453 55712","OBJECT_TYPE":"PAYLOAD","PERIAPSIS":"545.934","MEAN_ELEMENT_THEORY":"SGP4","ELEMENT_SET_NO":"999","EPHEMERIS_TYPE":"0","MEAN_ANOMALY":"297.4602","CENTER_NAME":"EARTH","BSTAR":"0.00124490000000","FILE":"3359259","APOAPSIS":"548.331","NORAD_CAT_ID":"47998","REF_FRAME":"TEME","COUNTRY_CODE":"US","ECCENTRICITY":"0.00017310","RA_OF_ASC_NODE":"343.9280","TIME_SYSTEM":"UTC","MEAN_MOTION_DDOT":"0.0000000000000","SITE":"AFETR","OBJECT_ID":"2021-024X","PERIOD":"95.590","EPOCH":"2022-03-14T10:48:15.788736","REV_AT_EPOCH":"5571","LAUNCH_DATE":"2021-03-24","CLASSIFICATION_TYPE":"U","INCLINATION":"53.0570","TLE_LINE1":"1 47998U 21024X   22073.45018274  .00018323  00000-0  12449-2 0  9990","DECAY_DATE":null,"ARG_OF_PERICENTER":"62.6563","SEMIMAJOR_AXIS":"6925.267","MEAN_MOTION":"15.06426453","MEAN_MOTION_DOT":"0.00018323","RCS_SIZE":"LARGE"},{"MEAN_ANOMALY":"91.2304","CENTER_NAME":"EARTH","FILE":"3359665","BSTAR":"-0.00296410000000","EPHEMERIS_TYPE":"0","REF_FRAME":"TEME","ECCENTRICITY":"0.00015630","COUNTRY_CODE":"US","NORAD_CAT_ID":"47999","APOAPSIS":"548.193","TLE_LINE2":"2 47999  53.0563 311.8455 0001563  65.0205  91.2304 15.06433472  3582","OBJECT_TYPE":"PAYLOAD","OBJECT_NAME":"STARLINK-2218","GP_ID":"198769086","MEAN_ELEMENT_THEORY":"SGP4","PERIAPSIS":"546.029","ELEMENT_SET_NO":"999","ARG_OF_PERICENTER":"65.0205","DECAY_DATE":null,"TLE_LINE1":"1 47999U 21024Y   22073.91667824 -.00044199  00000-0 -29641-2 0  9997","SEMIMAJOR_AXIS":"6925.246","INCLINATION":"53.0563","LAUNCH_DATE":"2021-03-24","CLASSIFICATION_TYPE":"U","MEAN_MOTION_DOT":"-0.00044199","RCS_SIZE":"LARGE","MEAN_MOTION":"15.06433472","PERIOD":"95.590","TIME_SYSTEM":"UTC","RA_OF_ASC_NODE":"311.8455","MEAN_MOTION_DDOT":"0.0000000000000","SITE":"AFETR","OBJECT_ID":"2021-024Y","REV_AT_EPOCH":"358","EPOCH":"2022-03-14T22:00:00.999936"},{"PERIOD":"95.592","MEAN_MOTION_DDOT":"0.0000000000000","SITE":"AFETR","OBJECT_ID":"2021-024Z","RA_OF_ASC_NODE":"296.8304","TIME_SYSTEM":"UTC","REV_AT_EPOCH":"358","EPOCH":"2022-03-14T22:00:00.999936","SEMIMAJOR_AXIS":"6925.327","TLE_LINE1":"1 48000U 21024Z   22073.91667824  .00010794  00000-0  74226-3 0  9993","DECAY_DATE":null,"ARG_OF_PERICENTER":"44.8005","LAUNCH_DATE":"2021-03-24","CLASSIFICATION_TYPE":"U","INCLINATION":"53.0546","MEAN_MOTION_DOT":"0.00010794","RCS_SIZE":"LARGE","MEAN_MOTION":"15.06407189","OBJECT_TYPE":"PAYLOAD","TLE_LINE2":"2 48000  53.0546 296.8304 0001851  44.8005 233.9952 15.06407189  3585","GP_ID":"198769337","OBJECT_NAME":"STARLINK-2270","ELEMENT_SET_NO":"999","PERIAPSIS":"545.910","MEAN_ELEMENT_THEORY":"SGP4","BSTAR":"0.00074226000000","FILE":"3359665","CENTER_NAME":"EARTH","MEAN_ANOMALY":"233.9952","EPHEMERIS_TYPE":"0","COUNTRY_CODE":"US","ECCENTRICITY":"0.00018510","REF_FRAME":"TEME","APOAPSIS":"548.473","NORAD_CAT_ID":"48000"},{"EPOCH":"2022-03-14T22:00:00.999936","REV_AT_EPOCH":"358","PERIOD":"95.590","SITE":"AFETR","MEAN_MOTION_DDOT":"0.0000000000000","OBJECT_ID":"2021-024AB","RA_OF_ASC_NODE":"316.8323","TIME_SYSTEM":"UTC","MEAN_MOTION_DOT":"0.00000625","RCS_SIZE":"LARGE","MEAN_MOTION":"15.06431820","SEMIMAJOR_AXIS":"6925.251","TLE_LINE1":"1 48002U 21024AB  22073.91667824  .00000625  00000-0  60785-4 0  9993","DECAY_DATE":null,"ARG_OF_PERICENTER":"63.7597","LAUNCH_DATE":"2021-03-24","CLASSIFICATION_TYPE":"U","INCLINATION":"53.0555","ELEMENT_SET_NO":"999","PERIAPSIS":"546.011","MEAN_ELEMENT_THEORY":"SGP4","OBJECT_TYPE":"PAYLOAD","TLE_LINE2":"2 48002  53.0555 316.8323 0001595  63.7597 125.0168 15.06431820  3581","GP_ID":"198767586","OBJECT_NAME":"STARLINK-2265","ECCENTRICITY":"0.00015950","COUNTRY_CODE":"US","REF_FRAME":"TEME","APOAPSIS":"548.221","NORAD_CAT_ID":"48002","BSTAR":"0.00006078500000","FILE":"3359665","MEAN_ANOMALY":"125.0168","CENTER_NAME":"EARTH","EPHEMERIS_TYPE":"0"}];
